[
   {
      "name": "STARLINK-1491",
      "line1": "1 45778U 20038BA  21092.89526802  .00000222  00000-0  33817-4 0  9990",
      "line2": "2 45778  53.0593   5.1720 0002137  78.6444 281.4785 15.06400277 45173",
      "drg": 3.3817,
      "inc": 53.0593,
      "ran": 5.172,
      "ecc": 0.0002137,
      "aop": 78.6444,
      "man": 281.4785,
      "mmo": 15.06400277,
      "sma": 6925.34771
   },
   {
      "name": "STARLINK-1492",
      "line1": "1 45779U 20038BB  21092.89158091 -.00000416  00000-0 -90036-5 0  9996",
      "line2": "2 45779  53.0582   5.1879 0002063  77.2740 282.8480 15.06395138 45175",
      "drg": -0.90036,
      "inc": 53.0582,
      "ran": 5.1879,
      "ecc": 0.0002063,
      "aop": 77.274,
      "man": 282.848,
      "mmo": 15.06395138,
      "sma": 6925.36346
   },
   {
      "name": "STARLINK-1496",
      "line1": "1 45780U 20038BC  21092.76994656  .00001071  00000-0  90818-4 0  9992",
      "line2": "2 45780  53.0581   5.7340 0002080  67.8411 292.2799 15.06405650 45151",
      "drg": 9.0818,
      "inc": 53.0581,
      "ran": 5.734,
      "ecc": 0.000208,
      "aop": 67.8411,
      "man": 292.2799,
      "mmo": 15.0640565,
      "sma": 6925.33124
   },
   {
      "name": "STARLINK-1497",
      "line1": "1 45781U 20038BD  21092.86209636 -.00003763  00000-0 -23373-3 0  9994",
      "line2": "2 45781  53.0597   5.3300 0001816  60.7702 299.3469 15.06413494 45171",
      "drg": -23.373,
      "inc": 53.0597,
      "ran": 5.33,
      "ecc": 0.0001816,
      "aop": 60.7702,
      "man": 299.3469,
      "mmo": 15.06413494,
      "sma": 6925.3072
   },
   {
      "name": "STARLINK-1498",
      "line1": "1 45782U 20038BE  21092.85472223 -.00001300  00000-0 -68353-4 0  9991",
      "line2": "2 45782  53.0581   5.3625 0002026  76.6538 283.4677 15.06400917 45184",
      "drg": -6.8353,
      "inc": 53.0581,
      "ran": 5.3625,
      "ecc": 0.0002026,
      "aop": 76.6538,
      "man": 283.4677,
      "mmo": 15.06400917,
      "sma": 6925.34575
   },
   {
      "name": "STARLINK-1505",
      "line1": "1 45783U 20038BF  21092.79206332  .00000937  00000-0  81855-4 0  9996",
      "line2": "2 45783  53.0594   5.6427 0002206  70.0970 290.0256 15.06393185 45174",
      "drg": 8.1855,
      "inc": 53.0594,
      "ran": 5.6427,
      "ecc": 0.0002206,
      "aop": 70.097,
      "man": 290.0256,
      "mmo": 15.06393185,
      "sma": 6925.36945
   },
   {
      "name": "STARLINK-1510",
      "line1": "1 45784U 20038BG  21092.23548380 -.00000288  00000-0 -44847-6 0  9991",
      "line2": "2 45784  53.0604   8.1349 0002176  77.1114 283.0118 15.06399770 45087",
      "drg": -0.044847,
      "inc": 53.0604,
      "ran": 8.1349,
      "ecc": 0.0002176,
      "aop": 77.1114,
      "man": 283.0118,
      "mmo": 15.0639977,
      "sma": 6925.34926
   },
   {
      "name": "STARLINK-1512",
      "line1": "1 45785U 20038BH  21092.74782653  .00000828  00000-0  74522-4 0  9990",
      "line2": "2 45785  53.0596   5.8364 0002234  75.0890 285.0347 15.06401307 45167",
      "drg": 7.4522,
      "inc": 53.0596,
      "ran": 5.8364,
      "ecc": 0.0002234,
      "aop": 75.089,
      "man": 285.0347,
      "mmo": 15.06401307,
      "sma": 6925.34455
   },
   {
      "name": "STARLINK-1513",
      "line1": "1 45786U 20038BJ  21092.86578061  .00000996  00000-0  85770-4 0  9993",
      "line2": "2 45786  53.0587   5.3072 0002222  75.0783 285.0452 15.06394053 45185",
      "drg": 8.577,
      "inc": 53.0587,
      "ran": 5.3072,
      "ecc": 0.0002222,
      "aop": 75.0783,
      "man": 285.0452,
      "mmo": 15.06394053,
      "sma": 6925.36679
   },
   {
      "name": "STARLINK-1517",
      "line1": "1 45787U 20038BK  21092.80680444  .00000901  00000-0  79418-4 0  9995",
      "line2": "2 45787  53.0581   5.5778 0002181  76.6973 283.4259 15.06399438 45175",
      "drg": 7.9418,
      "inc": 53.0581,
      "ran": 5.5778,
      "ecc": 0.0002181,
      "aop": 76.6973,
      "man": 283.4259,
      "mmo": 15.06399438,
      "sma": 6925.35028
   },
   {
      "name": "STARLINK-1522",
      "line1": "1 46027U 20055A   21092.91277984  .00001169  00000-0  97367-4 0  9995",
      "line2": "2 46027  53.0549 295.1101 0002007  86.6174 273.5045 15.06404329 37311",
      "drg": 9.7367,
      "inc": 53.0549,
      "ran": 295.1101,
      "ecc": 0.0002007,
      "aop": 86.6174,
      "man": 273.5045,
      "mmo": 15.06404329,
      "sma": 6925.33529
   },
   {
      "name": "STARLINK-1523",
      "line1": "1 46028U 20055B   21092.86118204 -.00001015  00000-0 -49274-4 0  9995",
      "line2": "2 46028  53.0576 295.3287 0001811  90.1366 269.9831 15.06393441 37329",
      "drg": -4.9274,
      "inc": 53.0576,
      "ran": 295.3287,
      "ecc": 0.0001811,
      "aop": 90.1366,
      "man": 269.9831,
      "mmo": 15.06393441,
      "sma": 6925.36866
   },
   {
      "name": "STARLINK-1526",
      "line1": "1 46029U 20055C   21092.85380137  .00000755  00000-0  69558-4 0  9996",
      "line2": "2 46029  53.0568 295.3692 0001987  83.1831 276.9384 15.06400811 37314",
      "drg": 6.9558,
      "inc": 53.0568,
      "ran": 295.3692,
      "ecc": 0.0001987,
      "aop": 83.1831,
      "man": 276.9384,
      "mmo": 15.06400811,
      "sma": 6925.34607
   },
   {
      "name": "STARLINK-1534",
      "line1": "1 46030U 20055D   21092.93859326  .00000573  00000-0  57404-4 0  9993",
      "line2": "2 46030  53.0573 294.9885 0001998  91.8016 268.3202 15.06392830 37285",
      "drg": 5.7404,
      "inc": 53.0573,
      "ran": 294.9885,
      "ecc": 0.0001998,
      "aop": 91.8016,
      "man": 268.3202,
      "mmo": 15.0639283,
      "sma": 6925.37053
   },
   {
      "name": "STARLINK-1544",
      "line1": "1 46031U 20055E   21092.94227100 -.00000053  00000-0  15341-4 0  9992",
      "line2": "2 46031  53.0558 294.9647 0001811  79.9858 280.1335 15.06389678 37319",
      "drg": 1.5341,
      "inc": 53.0558,
      "ran": 294.9647,
      "ecc": 0.0001811,
      "aop": 79.9858,
      "man": 280.1335,
      "mmo": 15.06389678,
      "sma": 6925.38019
   },
   {
      "name": "STARLINK-1555",
      "line1": "1 46032U 20055F   21092.83906467  .00000900  00000-0  79350-4 0  9991",
      "line2": "2 46032  53.0572 295.4321 0001773  83.9648 276.1543 15.06390043 37314",
      "drg": 7.935,
      "inc": 53.0572,
      "ran": 295.4321,
      "ecc": 0.0001773,
      "aop": 83.9648,
      "man": 276.1543,
      "mmo": 15.06390043,
      "sma": 6925.37908
   },
   {
      "name": "STARLINK-1556",
      "line1": "1 46033U 20055G   21092.82063500  .00000818  00000-0  73831-4 0  9999",
      "line2": "2 46033  53.0563 295.5204 0001880  86.7017 273.4187 15.06388500 37281",
      "drg": 7.3831,
      "inc": 53.0563,
      "ran": 295.5204,
      "ecc": 0.000188,
      "aop": 86.7017,
      "man": 273.4187,
      "mmo": 15.063885,
      "sma": 6925.3838
   },
   {
      "name": "STARLINK-1557",
      "line1": "1 46034U 20055H   21092.82431316 -.00000850  00000-0 -38141-4 0  9997",
      "line2": "2 46034  53.0562 295.4974 0001664  95.8395 264.2784 15.06394104 37282",
      "drg": -3.8141,
      "inc": 53.0562,
      "ran": 295.4974,
      "ecc": 0.0001664,
      "aop": 95.8395,
      "man": 264.2784,
      "mmo": 15.06394104,
      "sma": 6925.36663
   },
   {
      "name": "STARLINK-1558",
      "line1": "1 46035U 20055J   21092.83169332  .00001064  00000-0  90307-4 0  9993",
      "line2": "2 46035  53.0554 295.4731 0001822  90.5395 269.5803 15.06395358 37319",
      "drg": 9.0307,
      "inc": 53.0554,
      "ran": 295.4731,
      "ecc": 0.0001822,
      "aop": 90.5395,
      "man": 269.5803,
      "mmo": 15.06395358,
      "sma": 6925.36279
   },
   {
      "name": "STARLINK-1560",
      "line1": "1 46036U 20055K   21092.88329416  .00000681  00000-0  64625-4 0  9998",
      "line2": "2 46036  53.0573 295.2351 0001861  91.5847 268.5355 15.06395154 37329",
      "drg": 6.4625,
      "inc": 53.0573,
      "ran": 295.2351,
      "ecc": 0.0001861,
      "aop": 91.5847,
      "man": 268.5355,
      "mmo": 15.06395154,
      "sma": 6925.36341
   },
   {
      "name": "STARLINK-1565",
      "line1": "1 46037U 20055L   21092.94595413 -.00001210  00000-0 -62348-4 0  9999",
      "line2": "2 46037  53.0585 294.9535 0002015  84.6999 275.4220 15.06389667 37326",
      "drg": -6.2348,
      "inc": 53.0585,
      "ran": 294.9535,
      "ecc": 0.0002015,
      "aop": 84.6999,
      "man": 275.422,
      "mmo": 15.06389667,
      "sma": 6925.38023
   },
   {
      "name": "STARLINK-1567",
      "line1": "1 46038U 20055M   21092.82801288  .00000664  00000-0  63490-4 0  9996",
      "line2": "2 46038  53.0563 295.4824 0001889  88.8085 271.3120 15.06389007 37300",
      "drg": 6.349,
      "inc": 53.0563,
      "ran": 295.4824,
      "ecc": 0.0001889,
      "aop": 88.8085,
      "man": 271.312,
      "mmo": 15.06389007,
      "sma": 6925.38225
   },
   {
      "name": "STARLINK-1569",
      "line1": "1 46039U 20055N   21092.83538322  .00001197  00000-0  99272-4 0  9993",
      "line2": "2 46039  53.0564 295.4497 0001654  88.9968 271.1210 15.06392600 37300",
      "drg": 9.9272,
      "inc": 53.0564,
      "ran": 295.4497,
      "ecc": 0.0001654,
      "aop": 88.9968,
      "man": 271.121,
      "mmo": 15.063926,
      "sma": 6925.37124
   },
   {
      "name": "STARLINK-1576",
      "line1": "1 46040U 20055P   21092.93121233 -.00001022  00000-0 -49723-4 0  9990",
      "line2": "2 46040  53.0570 295.0233 0002108  95.0589 265.0640 15.06392781 37282",
      "drg": -4.9723,
      "inc": 53.057,
      "ran": 295.0233,
      "ecc": 0.0002108,
      "aop": 95.0589,
      "man": 265.064,
      "mmo": 15.06392781,
      "sma": 6925.37068
   }
]